NORAD_CAT_ID,OBJECT_NAME,OBJECT_TYPE,EPOCH,MEAN_MOTION,ECCENTRICITY,INCLINATION,RA_OF_ASC_NODE,ARG_OF_PERICENTER,MEAN_ANOMALY,BSTAR,MEAN_MOTION_DOT,MEAN_MOTION_DDOT,TLE_LINE0,TLE_LINE1,TLE_LINE2,SEMIMAJOR_AXIS,PERIOD,APOGEE,PERIGEE,DECAYED
53801.0,STARLINK-4715,PAYLOAD,2024-04-10 04:21:23,15.10477294,0.0001564,53.2161,159.9622,95.1208,264.9963,0.00011013,1.541e-05,0.0,0 STARLINK-4715,1 53801U 22111AE  24101.18152144  .00001541  00000-0  11013-3 0  9998,2 53801  53.2161 159.9622 0001564  95.1208 264.9963 15.10477294 87556,6912.88,95.334,535.827,533.664,0.0
53801.0,STARLINK-4715,PAYLOAD,2024-04-10 10:42:31,15.10475989,0.0001444,53.2168,158.7717,93.7975,266.3183,0.000103,1.422e-05,0.0,0 STARLINK-4715,1 53801U 22111AE  24101.44619551  .00001422  00000-0  10300-3 0  9993,2 53801  53.2168 158.7717 0001444  93.7975 266.3183 15.10475989 88401,6912.884,95.334,535.748,533.751,0.0
53801.0,STARLINK-4715,PAYLOAD,2024-04-10 20:14:12,15.10483963,0.0001382,53.2168,156.984,91.3439,268.7713,8.813e-05,1.175e-05,0.0,0 STARLINK-4715,1 53801U 22111AE  24101.84319831  .00001175  00000-0  88130-4 0  9997,2 53801  53.2168 156.9840 0001382  91.3439 268.7713 15.10483963 88460,6912.86,95.334,535.68,533.77,0.0
53801.0,STARLINK-4715,PAYLOAD,2024-04-11 10:31:45,15.10469353,0.0001691,53.2188,154.3096,108.063,252.0547,1.3836e-05,-6.2e-07,0.0,0 STARLINK-4715,1 53801U 22111AE  24102.43872344 -.00000062  00000-0  13836-4 0  9992,2 53801  53.2188 154.3096 0001691 108.0630 252.0547 15.10469353 87747,6912.905,95.335,535.939,533.601,0.0
53801.0,STARLINK-4715,PAYLOAD,2024-04-11 20:03:26,15.10479246,0.0001491,53.2175,152.5205,97.6595,262.4567,4.7254e-05,4.94e-06,0.0,0 STARLINK-4715,1 53801U 22111AE  24102.83572499  .00000494  00000-0  47254-4 0  9993,2 53801  53.2175 152.5205 0001491  97.6595 262.4567 15.10479246 87802,6912.874,95.334,535.77,533.709,0.0
53801.0,STARLINK-4715,PAYLOAD,2024-04-12 10:21:00,15.10465417,0.0001464,53.2183,149.8444,102.0136,258.1021,1.5654e-05,-3.2e-07,0.0,0 STARLINK-4715,1 53801U 22111AE  24103.43125054 -.00000032  00000-0  15654-4 0  9999,2 53801  53.2183 149.8444 0001464 102.0136 258.1021 15.10465417 87898,6912.917,95.335,535.794,533.77,0.0
53801.0,STARLINK-4715,PAYLOAD,2024-04-13 11:45:30,15.10478923,0.0001491,53.217,145.0747,93.2266,266.8897,0.00012366,1.767e-05,0.0,0 STARLINK-4715,1 53801U 22111AE  24104.48993217  .00001767  00000-0  12366-3 0  9990,2 53801  53.2170 145.0747 0001491  93.2266 266.8897 15.10478923 88055,6912.875,95.334,535.771,533.71,0.0
53801.0,STARLINK-4715,PAYLOAD,2024-04-14 09:59:27,15.10473384,0.0001425,53.2165,140.9046,95.3501,264.7654,6.3308e-05,7.61e-06,0.0,0 STARLINK-4715,1 53801U 22111AE  24105.41629401  .00000761  00000-0  63308-4 0  9991,2 53801  53.2165 140.9046 0001425  95.3501 264.7654 15.10473384 88196,6912.892,95.334,535.742,533.772,0.0
53801.0,STARLINK-4715,PAYLOAD,2024-04-15 11:23:57,15.10489413,0.0001509,53.2165,136.1371,86.6562,273.4604,0.00010298,1.423e-05,0.0,0 STARLINK-4715,1 53801U 22111AE  24106.47497347  .00001423  00000-0  10298-3 0  9995,2 53801  53.2165 136.1371 0001509  86.6562 273.4604 15.10489413 88357,6912.843,95.333,535.752,533.665,0.0
53801.0,STARLINK-4715,PAYLOAD,2024-04-15 20:55:40,15.10452641,0.0001584,53.2155,134.3517,99.8966,260.2206,0.00068558,0.00011131,0.0,0 STARLINK-4715,1 53801U 22111AE  24106.87199582  .00011131  00000-0  68558-3 0  9998,2 53801  53.2155 134.3517 0001584  99.8966 260.2206 15.10452641 88417,6912.956,95.336,535.916,533.726,0.0
53801.0,STARLINK-4715,PAYLOAD,2024-04-16 11:13:11,15.10483792,0.0001509,53.2143,131.6711,90.4225,269.6941,0.00017962,2.699e-05,0.0,0 STARLINK-4715,1 53801U 22111AE  24107.46749935  .00002699  00000-0  17962-3 0  9999,2 53801  53.2143 131.6711 0001509  90.4225 269.6941 15.10483792 88502,6912.861,95.334,535.769,533.682,0.0
53801.0,STARLINK-4715,PAYLOAD,2024-04-17 11:02:25,15.10487279,0.0001524,53.2147,127.2037,93.2823,266.8344,0.00015629,2.311e-05,0.0,0 STARLINK-4715,1 53801U 22111AE  24108.46001660  .00002311  00000-0  15629-3 0  9995,2 53801  53.2147 127.2037 0001524  93.2823 266.8344 15.10487279 89466,6912.85,95.333,535.768,533.661,0.0
53801.0,STARLINK-4715,PAYLOAD,2024-04-18 04:30:32,15.10470356,0.0001629,53.2156,123.9257,121.9305,238.1846,0.00016167,2.399e-05,0.0,0 STARLINK-4715,1 53801U 22111AE  24109.18787467  .00002399  00000-0  16167-3 0  9995,2 53801  53.2156 123.9257 0001629 121.9305 238.1846 15.10470356 88762,6912.902,95.335,535.893,533.64,0.0
53801.0,STARLINK-4715,PAYLOAD,2024-04-18 07:41:07,15.10455264,0.000135,53.2156,123.3301,99.0615,261.053,0.00015872,2.349e-05,0.0,0 STARLINK-4715,1 53801U 22111AE  24109.32021992  .00002349  00000-0  15872-3 0  9992,2 53801  53.2156 123.3301 0001350  99.0615 261.0530 15.10455264 88784,6912.948,95.335,535.746,533.879,0.0
53801.0,STARLINK-4715,PAYLOAD,2024-04-19 04:19:46,15.10473962,0.0001277,53.216,119.4606,86.8643,273.2496,3.8679e-05,3.51e-06,0.0,0 STARLINK-4715,1 53801U 22111AE  24110.18040007  .00000351  00000-0  38679-4 0  9998,2 53801  53.2160 119.4606 0001277  86.8643 273.2496 15.10473962 88912,6912.891,95.334,535.638,533.873,0.0
53801.0,STARLINK-4715,PAYLOAD,2024-04-19 05:55:03,15.10477784,0.0001346,53.2155,119.1583,102.6033,257.511,4.5859e-05,4.71e-06,0.0,0 STARLINK-4715,1 53801U 22111AE  24110.24656479  .00000471  00000-0  45859-4 0  9992,2 53801  53.2155 119.1583 0001346 102.6033 257.5110 15.10477784 89739,6912.879,95.334,535.674,533.813,0.0
53801.0,STARLINK-4715,PAYLOAD,2024-04-20 05:44:17,15.10475802,0.00013,53.2153,114.6943,94.1329,265.9813,0.00022073,3.384e-05,0.0,0 STARLINK-4715,1 53801U 22111AE  24111.23909024  .00003384  00000-0  22073-3 0  9997,2 53801  53.2153 114.6943 0001300  94.1329 265.9813 15.10475802 89079,6912.885,95.334,535.649,533.851,0.0
53801.0,STARLINK-4715,PAYLOAD,2024-04-21 03:58:14,15.10469938,0.0001451,53.2158,110.5269,97.6238,262.4919,-5.9019e-05,-1.275e-05,0.0,0 STARLINK-4715,1 53801U 22111AE  24112.16544986 -.00001275  00000-0 -59019-4 0  9992,2 53801  53.2158 110.5269 0001451  97.6238 262.4919 15.10469938 89212,6912.903,95.335,535.771,533.765,0.0
53801.0,STARLINK-4715,PAYLOAD,2024-04-21 05:33:31,15.10468338,0.0001441,53.216,110.2292,97.8982,262.2174,-8.4487e-05,-1.699e-05,0.0,0 STARLINK-4715,1 53801U 22111AE  24112.23161889 -.00001699  00000-0 -84487-4 0  9994,2 53801  53.2160 110.2292 0001441  97.8982 262.2174 15.10468338 90031,6912.908,95.335,535.769,533.777,0.0
53801.0,STARLINK-4715,PAYLOAD,2024-04-21 23:01:38,15.10469563,0.0001481,53.2172,106.954,74.4774,285.6382,5.2936e-05,5.89e-06,0.0,0 STARLINK-4715,1 53801U 22111AE  24112.95947539  .00000589  00000-0  52936-4 0  9996,2 53801  53.2172 106.9540 0001481  74.4774 285.6382 15.10469563 90149,6912.904,95.335,535.793,533.745,0.0
53801.0,STARLINK-4715,PAYLOAD,2024-04-22 08:33:19,15.10480029,0.0001557,53.2176,105.1677,84.0618,276.0553,0.00013075,1.885e-05,0.0,0 STARLINK-4715,1 53801U 22111AE  24113.35647663  .00001885  00000-0  13075-3 0  9996,2 53801  53.2176 105.1677 0001557  84.0618 276.0553 15.10480029 89392,6912.872,95.334,535.813,533.661,0.0
53801.0,STARLINK-4715,PAYLOAD,2024-04-23 05:11:59,15.10476391,0.0001527,53.218,101.2962,87.438,272.6788,0.00017213,2.574e-05,0.0,0 STARLINK-4715,1 53801U 22111AE  24114.21666544  .00002574  00000-0  17213-3 0  9995,2 53801  53.2180 101.2962 0001527  87.4380 272.6788 15.10476391 89525,6912.883,95.334,535.804,533.693,0.0
53801.0,STARLINK-4715,PAYLOAD,2024-04-23 08:22:33,15.10477504,0.0001471,53.2162,100.7004,85.4717,274.6444,0.00016712,2.491e-05,0.0,0 STARLINK-4715,1 53801U 22111AE  24114.34900186  .00002491  00000-0  16712-3 0  9993,2 53801  53.2162 100.7004 0001471  85.4717 274.6444 15.10477504 90357,6912.88,95.334,535.762,533.728,0.0
53801.0,STARLINK-4715,PAYLOAD,2024-04-24 08:11:47,15.10484311,0.000148,53.2163,96.2312,89.1655,270.9508,6.9134e-05,8.59e-06,0.0,0 STARLINK-4715,1 53801U 22111AE  24115.34151975  .00000859  00000-0  69134-4 0  9991,2 53801  53.2163  96.2312 0001480  89.1655 270.9508 15.10484311 89690,6912.859,95.334,535.747,533.701,0.0
53801.0,STARLINK-4715,PAYLOAD,2024-04-25 04:50:27,15.10477957,0.000146,53.2187,92.3555,84.756,275.3599,6.7512e-05,8.31e-06,0.0,0 STARLINK-4715,1 53801U 22111AE  24116.20170919  .00000831  00000-0  67512-4 0  9994,2 53801  53.2187  92.3555 0001460  84.7560 275.3599 15.10477957 89828,6912.878,95.334,535.753,533.734,0.0
53801.0,STARLINK-4715,PAYLOAD,2024-04-25 08:01:01,15.10477552,0.0001443,53.2185,91.7614,88.4018,271.714,5.8107e-05,6.75e-06,0.0,0 STARLINK-4715,1 53801U 22111AE  24116.33404571  .00000675  00000-0  58107-4 0  9998,2 53801  53.2185  91.7614 0001443  88.4018 271.7140 15.10477552 90651,6912.88,95.334,535.742,533.747,0.0
53801.0,STARLINK-4715,PAYLOAD,2024-04-26 04:39:41,15.10478335,0.0001363,53.2175,87.8899,121.2052,238.9075,4.0262e-05,3.78e-06,0.0,0 STARLINK-4715,1 53801U 22111AE  24117.19422876  .00000378  00000-0  40262-4 0  9994,2 53801  53.2175  87.8899 0001363 121.2052 238.9075 15.10478335 90782,6912.877,95.334,535.684,533.8,0.0
53801.0,STARLINK-4715,PAYLOAD,2024-04-27 04:28:54,15.10487666,0.0001203,53.2171,83.4248,87.4626,272.6505,0.00015797,2.339e-05,0.0,0 STARLINK-4715,1 53801U 22111AE  24118.18674261  .00002339  00000-0  15797-3 0  9994,2 53801  53.2171  83.4248 0001203  87.4626 272.6505 15.10487666 90129,6912.849,95.333,535.545,533.882,0.0
53801.0,STARLINK-4715,PAYLOAD,2024-04-27 21:57:01,15.10476534,0.0001222,53.2174,80.1532,86.9457,273.1676,3.798e-05,3.4e-06,0.0,0 STARLINK-4715,1 53801U 22111AE  24118.91460230  .00000340  00000-0  37980-4 0  9993,2 53801  53.2174  80.1532 0001222  86.9457 273.1676 15.10476534 91048,6912.883,95.334,535.592,533.903,0.0
53801.0,STARLINK-4715,PAYLOAD,2024-04-28 04:18:10,15.10459461,0.0001252,53.2177,78.9634,76.1338,283.9794,-8.9155e-05,-1.776e-05,0.0,0 STARLINK-4715,1 53801U 22111AE  24119.17929111 -.00001776  00000-0 -89155-4 0  9997,2 53801  53.2177  78.9634 0001252  76.1338 283.9794 15.10459461 90275,6912.935,95.335,535.665,533.934,0.0
